SAR-LUPE 2              
1 31797U 07030A   26198.19429440  .00014859  00000+0  23386-3 0  9997
2 31797  98.1069 306.4521 0005022 195.4983 164.6115 15.53708861 61590
SAPPHIRE                
1 39088U 13009C   26198.13921748  .00000027  00000+0  24273-4 0  9992
2 39088  98.4276  16.8859 0011700 154.3652 205.8116 14.35247860700873
PRAETORIAN SDA_602      
1 65565U 25203A   26197.88124609  .00000034  00000+0  19872-4 0  9999
2 65565  81.3046 343.2754 0007100 113.7362 246.4539 13.83887999 42802
PRAETORIAN SDA_603      
1 65566U 25203B   26197.90944191  .00000120  00000+0  97327-4 0  9996
2 65566  81.3054 343.1708 0010814 109.9839 250.2483 13.83960821 42810
PRAETORIAN SDA_604      
1 65567U 25203C   26197.51407610  .00000026  00000+0  13055-4 0  9995
2 65567  81.3068 343.9947 0006613 118.4051 241.7772 13.83050104 42733
PRAETORIAN SDA_605      
1 65568U 25203D   26197.90763501  .00000041  00000+0  26606-4 0  9996
2 65568  81.3033 343.2708 0009344 109.1191 251.0978 13.83200198 42800
PRAETORIAN SDA_606      
1 65569U 25203E   26197.89280883  .00000025  00000+0  11845-4 0  9993
2 65569  81.3069 343.5232 0007204 112.1622 248.0299 13.83200127 42793
PRAETORIAN SDA_607      
1 65570U 25203F   26197.88248256  .00000136  00000+0  11246-3 0  9999
2 65570  81.3053 343.1508 0009977 110.0713 250.1519 13.83758600 42813
PRAETORIAN SDA_608      
1 65571U 25203G   26197.86493265  .00000042  00000+0  27088-4 0  9998
2 65571  81.3022 343.3302 0007111 116.3006 243.8881 13.83819577 42795
PRAETORIAN SDA_609      
1 65572U 25203H   26197.86143818  .00000192  00000+0  16166-3 0  9995
2 65572  81.3064 343.3109 0007964 111.2528 248.9480 13.84211741 42809
PRAETORIAN SDA_610      
1 65573U 25203J   26197.84718139  .00000059  00000+0  42780-4 0  9992
2 65573  81.3023 343.3104 0007831 115.8235 244.3730 13.83528361 42792
PRAETORIAN SDA_611      
1 65574U 25203K   26197.85635153  .00000141  00000+0  11764-3 0  9997
2 65574  81.3032 343.4851 0006708 120.1020 240.0802 13.83311093 42780
PRAETORIAN SDA_612      
1 65575U 25203L   26197.51998639  .00000094  00000+0  72675-4 0  9998
2 65575  81.3044 343.3106 0010391 111.9227 248.3036 13.85040844 42770
PRAETORIAN SDA_613      
1 65576U 25203M   26197.87475411  .00000038  00000+0  24246-4 0  9995
2 65576  81.3014 343.4882 0006805 111.1874 249.0010 13.82767786 42784
PRAETORIAN SDA_614      
1 65577U 25203N   26197.51470441  .00000025  00000+0  11937-4 0  9994
2 65577  81.3029 343.4006 0008244 110.1451 250.0594 13.84778625 42772
PRAETORIAN SDA_615      
1 65578U 25203P   26197.49880693  .00000112  00000+0  89057-4 0  9991
2 65578  81.3038 343.3979 0010145 110.5545 249.6701 13.84438020 42767
PRAETORIAN SDA_616      
1 65579U 25203Q   26197.85644853  .00000209  00000+0  17984-3 0  9994
2 65579  81.3077 343.6500 0006587 118.3182 241.8639 13.83270160 42786
PRAETORIAN SDA_617      
1 65580U 25203R   26197.51889487  .00000035  00000+0  20700-4 0  9991
2 65580  81.3052 343.7907 0008504 110.4767 249.7302 13.83152201 42741
PRAETORIAN SDA_618      
1 65581U 25203S   26197.90004473  .00000149  00000+0  12249-3 0  9993
2 65581  81.3035 342.9582 0010902 112.6228 247.6083 13.84225324 42824
PRAETORIAN SDA_619      
1 65582U 25203T   26197.51414865 -.00000017  00000+0 -25857-4 0  9997
2 65582  81.3060 343.6454 0009292 111.4394 248.7755 13.83804919 43382
PRAETORIAN SDA_620      
1 65583U 25203U   26197.91149278  .00000114  00000+0  93131-4 0  9991
2 65583  81.3050 343.3115 0008779 107.3721 252.8395 13.83205552 42800
PRAETORIAN SDA_621      
1 65584U 25203V   26197.51598694  .00000026  00000+0  12665-4 0  9993
2 65584  81.3035 343.5756 0008504 105.8708 254.3386 13.83803833 42758
PRAETORIAN SDA_601      
1 65585U 25203W   26197.50004397 -.00000122  00000+0 -12251-3 0  9994
2 65585  81.3062 343.9197 0006545 122.0492 238.1300 13.83169206 42739
VICTUS HAZE PUMA        
1 69646U 26142A   26198.28484859  .00002157  00000+0  99242-4 0  9994
2 69646  97.4460  95.5635 0026403 259.4716 100.3545 15.21130675  4244
